{"type": "FeatureCollection", "features": [{"type": "Feature", "properties": {"norad_id": 26766, "name": "INTELSAT 10 (IS-10)", "group": "intelsat", "lat": -8.575712047940177, "lon": -20.792628680014076, "alt_km": 36104.589619408755, "timestamp": "2025-12-20T09:36:01.299150+00:00", "meta": {"OBJECT_NAME": "INTELSAT 10 (IS-10)", "OBJECT_ID": "2001-019A", "EPOCH": "2025-12-19T15:29:42.245376", "MEAN_MOTION": 0.99074952, "ECCENTRICITY": 0.00077634, "INCLINATION": 8.645, "RA_OF_ASC_NODE": 61.0877, "ARG_OF_PERICENTER": 228.9364, "MEAN_ANOMALY": 139.953, "EPHEMERIS_TYPE": 0, "CLASSIFICATION_TYPE": "U", "NORAD_CAT_ID": 26766, "ELEMENT_SET_NO": 999, "REV_AT_EPOCH": 4380, "BSTAR": 0, "MEAN_MOTION_DOT": -1.33e-06, "MEAN_MOTION_DDOT": 0}, "tle": {"line1": "1 26766U 01019A   25353.64562784 -.00000133  00000+0  00000+0 0  9994", "line2": "2 26766   8.6450  61.0877 0007763 228.9364 139.9530  0.99074952 43808"}}, "geometry": {"type": "Point", "coordinates": [-20.792628680014076, -8.575712047940177]}}, {"type": "Feature", "properties": {"norad_id": 26900, "name": "INTELSAT 902 (IS-902)", "group": "intelsat", "lat": 5.3559401049541675, "lon": -176.86200379617483, "alt_km": 35783.09248236724, "timestamp": "2025-12-20T09:36:01.299175+00:00", "meta": {"OBJECT_NAME": "INTELSAT 902 (IS-902)", "OBJECT_ID": "2001-039A", "EPOCH": "2025-12-15T13:09:02.081664", "MEAN_MOTION": 1.0027087, "ECCENTRICITY": 0.00045028, "INCLINATION": 5.6536, "RA_OF_ASC_NODE": 74.0372, "ARG_OF_PERICENTER": 189.6359, "MEAN_ANOMALY": 327.9329, "EPHEMERIS_TYPE": 0, "CLASSIFICATION_TYPE": "U", "NORAD_CAT_ID": 26900, "ELEMENT_SET_NO": 999, "REV_AT_EPOCH": 8885, "BSTAR": 0, "MEAN_MOTION_DOT": -2.65e-06, "MEAN_MOTION_DDOT": 0}, "tle": {"line1": "1 26900U 01039A   25349.54794076 -.00000265  00000+0  00000+0 0  9997", "line2": "2 26900   5.6536  74.0372 0004502 189.6359 327.9329  1.00270870 88858"}}, "geometry": {"type": "Point", "coordinates": [-176.86200379617483, 5.3559401049541675]}}, {"type": "Feature", "properties": {"norad_id": 27380, "name": "INTELSAT 904 (IS-904)", "group": "intelsat", "lat": 4.921458008249052, "lon": -158.09911353530498, "alt_km": 35788.93618935178, "timestamp": "2025-12-20T09:36:01.299191+00:00", "meta": {"OBJECT_NAME": "INTELSAT 904 (IS-904)", "OBJECT_ID": "2002-007A", "EPOCH": "2025-12-19T07:35:21.663744", "MEAN_MOTION": 1.00271333, "ECCENTRICITY": 0.0001748, "INCLINATION": 6.4701, "RA_OF_ASC_NODE": 71.3572, "ARG_OF_PERICENTER": 247.0731, "MEAN_ANOMALY": 212.076, "EPHEMERIS_TYPE": 0, "CLASSIFICATION_TYPE": "U", "NORAD_CAT_ID": 27380, "ELEMENT_SET_NO": 999, "REV_AT_EPOCH": 4996, "BSTAR": 0, "MEAN_MOTION_DOT": -2.07e-06, "MEAN_MOTION_DDOT": 0}, "tle": {"line1": "1 27380U 02007A   25353.31622296 -.00000207  00000+0  00000+0 0  9996", "line2": "2 27380   6.4701  71.3572 0001748 247.0731 212.0760  1.00271333 49965"}}, "geometry": {"type": "Point", "coordinates": [-158.09911353530498, 4.921458008249052]}}, {"type": "Feature", "properties": {"norad_id": 27426, "name": "DIRECTV 5 (TEMPO 1)", "group": "intelsat", "lat": 3.1781614408159546, "lon": 123.03165367354582, "alt_km": 35799.22055198399, "timestamp": "2025-12-20T09:36:01.299205+00:00", "meta": {"OBJECT_NAME": "DIRECTV 5 (TEMPO 1)", "OBJECT_ID": "2002-023A", "EPOCH": "2025-12-19T10:22:10.435008", "MEAN_MOTION": 1.00272782, "ECCENTRICITY": 0.0003429, "INCLINATION": 4.4182, "RA_OF_ASC_NODE": 77.5755, "ARG_OF_PERICENTER": 208.1264, "MEAN_ANOMALY": 208.0122, "EPHEMERIS_TYPE": 0, "CLASSIFICATION_TYPE": "U", "NORAD_CAT_ID": 27426, "ELEMENT_SET_NO": 999, "REV_AT_EPOCH": 8632, "BSTAR": 0, "MEAN_MOTION_DOT": -3.6e-07, "MEAN_MOTION_DDOT": 0}, "tle": {"line1": "1 27426U 02023A   25353.43206522 -.00000036  00000+0  00000+0 0  9998", "line2": "2 27426   4.4182  77.5755 0003429 208.1264 208.0122  1.00272782 86322"}}, "geometry": {"type": "Point", "coordinates": [123.03165367354582, 3.1781614408159546]}}, {"type": "Feature", "properties": {"norad_id": 27438, "name": "INTELSAT 905 (IS-905)", "group": "intelsat", "lat": 2.5914421519901967, "lon": 95.89528240645686, "alt_km": 35796.70819868511, "timestamp": "2025-12-20T09:36:01.299217+00:00", "meta": {"OBJECT_NAME": "INTELSAT 905 (IS-905)", "OBJECT_ID": "2002-027A", "EPOCH": "2025-12-19T10:59:37.315392", "MEAN_MOTION": 1.00272292, "ECCENTRICITY": 0.0002646, "INCLINATION": 6.3015, "RA_OF_ASC_NODE": 71.9788, "ARG_OF_PERICENTER": 200.1075, "MEAN_ANOMALY": 203.9148, "EPHEMERIS_TYPE": 0, "CLASSIFICATION_TYPE": "U", "NORAD_CAT_ID": 27438, "ELEMENT_SET_NO": 999, "REV_AT_EPOCH": 4956, "BSTAR": 0, "MEAN_MOTION_DOT": 1.13e-06, "MEAN_MOTION_DDOT": 0}, "tle": {"line1": "1 27438U 02027A   25353.45807078  .00000113  00000+0  00000+0 0  9995", "line2": "2 27438   6.3015  71.9788 0002646 200.1075 203.9148  1.00272292 49560"}}, "geometry": {"type": "Point", "coordinates": [95.89528240645686, 2.5914421519901967]}}, {"type": "Feature", "properties": {"norad_id": 27445, "name": "GALAXY 3C (G-3C)", "group": "intelsat", "lat": 2.8002166067440184, "lon": 138.32842165665903, "alt_km": 35781.21871464884, "timestamp": "2025-12-20T09:36:01.299230+00:00", "meta": {"OBJECT_NAME": "GALAXY 3C (G-3C)", "OBJECT_ID": "2002-030A", "EPOCH": "2025-12-19T19:39:37.661760", "MEAN_MOTION": 1.00271872, "ECCENTRICITY": 0.00011391, "INCLINATION": 3.2806, "RA_OF_ASC_NODE": 80.4337, "ARG_OF_PERICENTER": 77.9265, "MEAN_ANOMALY": 130.349, "EPHEMERIS_TYPE": 0, "CLASSIFICATION_TYPE": "U", "NORAD_CAT_ID": 27445, "ELEMENT_SET_NO": 999, "REV_AT_EPOCH": 4469, "BSTAR": 0, "MEAN_MOTION_DOT": -1.31e-06, "MEAN_MOTION_DDOT": 0}, "tle": {"line1": "1 27445U 02030A   25353.81918590 -.00000131  00000+0  00000+0 0  9990", "line2": "2 27445   3.2806  80.4337 0001139  77.9265 130.3490  1.00271872 44699"}}, "geometry": {"type": "Point", "coordinates": [138.32842165665903, 2.8002166067440184]}}, {"type": "Feature", "properties": {"norad_id": 27513, "name": "INTELSAT 906 (IS-906)", "group": "intelsat", "lat": -3.619034538534713, "lon": -62.72587778555552, "alt_km": 35761.78510391715, "timestamp": "2025-12-20T09:36:01.299242+00:00", "meta": {"OBJECT_NAME": "INTELSAT 906 (IS-906)", "OBJECT_ID": "2002-041A", "EPOCH": "2025-12-19T20:34:46.617600", "MEAN_MOTION": 1.00272721, "ECCENTRICITY": 0.00063182, "INCLINATION": 5.3475, "RA_OF_ASC_NODE": 75.1475, "ARG_OF_PERICENTER": 198.3862, "MEAN_ANOMALY": 187.9892, "EPHEMERIS_TYPE": 0, "CLASSIFICATION_TYPE": "U", "NORAD_CAT_ID": 27513, "ELEMENT_SET_NO": 999, "REV_AT_EPOCH": 8523, "BSTAR": 0, "MEAN_MOTION_DOT": 3.3e-07, "MEAN_MOTION_DDOT": 0}, "tle": {"line1": "1 27513U 02041A   25353.85748400  .00000033  00000+0  00000+0 0  9993", "line2": "2 27513   5.3475  75.1475 0006318 198.3862 187.9892  1.00272721 85232"}}, "geometry": {"type": "Point", "coordinates": [-62.72587778555552, -3.619034538534713]}}, {"type": "Feature", "properties": {"norad_id": 27954, "name": "GALAXY 13 (HORIZONS-1)", "group": "intelsat", "lat": -0.02503197456635924, "lon": 83.21515572100637, "alt_km": 35796.85811275385, "timestamp": "2025-12-20T09:36:01.299254+00:00", "meta": {"OBJECT_NAME": "GALAXY 13 (HORIZONS-1)", "OBJECT_ID": "2003-044A", "EPOCH": "2025-12-19T15:58:31.984608", "MEAN_MOTION": 1.00269435, "ECCENTRICITY": 0.00024079, "INCLINATION": 0.9543, "RA_OF_ASC_NODE": 86.3811, "ARG_OF_PERICENTER": 175.8948, "MEAN_ANOMALY": 275.8576, "EPHEMERIS_TYPE": 0, "CLASSIFICATION_TYPE": "U", "NORAD_CAT_ID": 27954, "ELEMENT_SET_NO": 999, "REV_AT_EPOCH": 4477, "BSTAR": 0, "MEAN_MOTION_DOT": 1.56e-06, "MEAN_MOTION_DDOT": 0}, "tle": {"line1": "1 27954U 03044A   25353.66564797  .00000156  00000+0  00000+0 0  9996", "line2": "2 27954   0.9543  86.3811 0002407 175.8948 275.8576  1.00269435 44774"}}, "geometry": {"type": "Point", "coordinates": [83.21515572100637, -0.02503197456635924]}}, {"type": "Feature", "properties": {"norad_id": 28358, "name": "INTELSAT 10-02", "group": "intelsat", "lat": -0.010096454676774724, "lon": -127.74323554779266, "alt_km": 35785.07984874875, "timestamp": "2025-12-20T09:36:01.299267+00:00", "meta": {"OBJECT_NAME": "INTELSAT 10-02", "OBJECT_ID": "2004-022A", "EPOCH": "2025-12-19T18:23:37.440384", "MEAN_MOTION": 1.00270732, "ECCENTRICITY": 8.648e-05, "INCLINATION": 0.019, "RA_OF_ASC_NODE": 66.4308, "ARG_OF_PERICENTER": 235.6744, "MEAN_ANOMALY": 61.4488, "EPHEMERIS_TYPE": 0, "CLASSIFICATION_TYPE": "U", "NORAD_CAT_ID": 28358, "ELEMENT_SET_NO": 999, "REV_AT_EPOCH": 7875, "BSTAR": 0, "MEAN_MOTION_DOT": 1.4e-07, "MEAN_MOTION_DDOT": 0}, "tle": {"line1": "1 28358U 04022A   25353.76640556  .00000014  00000+0  00000+0 0  9994", "line2": "2 28358   0.0190  66.4308 0000864 235.6744  61.4488  1.00270732 78754"}}, "geometry": {"type": "Point", "coordinates": [-127.74323554779266, -0.010096454676774724]}}, {"type": "Feature", "properties": {"norad_id": 28626, "name": "XM-3 (RHYTHM)", "group": "intelsat", "lat": -0.16447769223966252, "lon": -48.889189575893134, "alt_km": 36155.48601067798, "timestamp": "2025-12-20T09:36:01.299279+00:00", "meta": {"OBJECT_NAME": "XM-3 (RHYTHM)", "OBJECT_ID": "2005-008A", "EPOCH": "2025-12-19T19:49:33.291264", "MEAN_MOTION": 0.98950037, "ECCENTRICITY": 0.00019093, "INCLINATION": 0.1922, "RA_OF_ASC_NODE": 81.9536, "ARG_OF_PERICENTER": 278.1936, "MEAN_ANOMALY": 106.5385, "EPHEMERIS_TYPE": 0, "CLASSIFICATION_TYPE": "U", "NORAD_CAT_ID": 28626, "ELEMENT_SET_NO": 999, "REV_AT_EPOCH": 4082, "BSTAR": 0, "MEAN_MOTION_DOT": 6.2e-07, "MEAN_MOTION_DDOT": 0}, "tle": {"line1": "1 28626U 05008A   25353.82607976  .00000062  00000+0  00000+0 0  9996", "line2": "2 28626   0.1922  81.9536 0001909 278.1936 106.5385  0.98950037 40820"}}, "geometry": {"type": "Point", "coordinates": [-48.889189575893134, -0.16447769223966252]}}]}